start=new Date('2022-05-20T00:00:00.000Z').valueOf();
sats=[{"PERIAPSIS":"545.809","CLASSIFICATION_TYPE":"U","REF_FRAME":"TEME","RA_OF_ASC_NODE":"118.0784","DECAY_DATE":null,"REV_AT_EPOCH":"5754","OBJECT_NAME":"STARLINK-2608","ARG_OF_PERICENTER":"52.4489","BSTAR":"0.00023756000000","MEAN_MOTION_DOT":"0.00003259","PERIOD":"95.592","MEAN_ANOMALY":"307.6682","EPHEMERIS_TYPE":"0","TLE_LINE1":"1 48365U 21038N   22139.35666122  .00003259  00000-0  23756-3 0  9993","TLE_LINE2":"2 48365  53.0539 118.0784 0002010  52.4489 307.6682 15.06404139 57543","NORAD_CAT_ID":"48365","SITE":"AFETR","OBJECT_ID":"2021-038N","ECCENTRICITY":"0.00020100","GP_ID":"203944009","INCLINATION":"53.0539","EPOCH":"2022-05-19T08:33:35.529408","FILE":"3453038","MEAN_MOTION":"15.06404139","MEAN_ELEMENT_THEORY":"SGP4","SEMIMAJOR_AXIS":"6925.336","RCS_SIZE":"LARGE","ELEMENT_SET_NO":"999","TIME_SYSTEM":"UTC","CENTER_NAME":"EARTH","COUNTRY_CODE":"US","OBJECT_TYPE":"PAYLOAD","MEAN_MOTION_DDOT":"0.0000000000000","APOAPSIS":"548.593","LAUNCH_DATE":"2021-05-04"},{"APOAPSIS":"548.469","LAUNCH_DATE":"2021-05-04","OBJECT_TYPE":"PAYLOAD","COUNTRY_CODE":"US","MEAN_MOTION_DDOT":"0.0000000000000","ELEMENT_SET_NO":"999","RCS_SIZE":"LARGE","CENTER_NAME":"EARTH","TIME_SYSTEM":"UTC","GP_ID":"203994377","ECCENTRICITY":"0.00018220","MEAN_ELEMENT_THEORY":"SGP4","SEMIMAJOR_AXIS":"6925.342","MEAN_MOTION":"15.06402123","FILE":"3453944","EPOCH":"2022-05-20T01:46:36.447744","INCLINATION":"53.0554","EPHEMERIS_TYPE":"0","OBJECT_ID":"2021-038P","NORAD_CAT_ID":"48366","SITE":"AFETR","TLE_LINE2":"2 48366  53.0554 109.8481 0001822  57.2189 302.8975 15.06402123 58301","TLE_LINE1":"1 48366U 21038P   22140.07403296  .00000612  00000-0  59958-4 0  9990","MEAN_MOTION_DOT":"0.00000612","MEAN_ANOMALY":"302.8975","PERIOD":"95.592","OBJECT_NAME":"STARLINK-2631","REV_AT_EPOCH":"5830","BSTAR":"0.00005995800000","ARG_OF_PERICENTER":"57.2189","REF_FRAME":"TEME","PERIAPSIS":"545.945","CLASSIFICATION_TYPE":"U","DECAY_DATE":null,"RA_OF_ASC_NODE":"109.8481"},{"REF_FRAME":"TEME","PERIAPSIS":"545.806","CLASSIFICATION_TYPE":"U","RA_OF_ASC_NODE":"109.8752","DECAY_DATE":null,"REV_AT_EPOCH":"5830","OBJECT_NAME":"STARLINK-2643","BSTAR":"-0.00000013044000","ARG_OF_PERICENTER":"55.8422","MEAN_MOTION_DOT":"-0.00000284","PERIOD":"95.592","MEAN_ANOMALY":"304.2762","EPHEMERIS_TYPE":"0","NORAD_CAT_ID":"48367","SITE":"AFETR","TLE_LINE1":"1 48367U 21038Q   22140.07035123 -.00000284  00000-0 -13044-6 0  9996","TLE_LINE2":"2 48367  53.0563 109.8752 0002056  55.8422 304.2762 15.06394588 58302","OBJECT_ID":"2021-038Q","GP_ID":"203993959","ECCENTRICITY":"0.00020560","FILE":"3453949","INCLINATION":"53.0563","EPOCH":"2022-05-20T01:41:18.346272","SEMIMAJOR_AXIS":"6925.365","MEAN_ELEMENT_THEORY":"SGP4","MEAN_MOTION":"15.06394588","RCS_SIZE":"LARGE","ELEMENT_SET_NO":"999","CENTER_NAME":"EARTH","TIME_SYSTEM":"UTC","COUNTRY_CODE":"US","OBJECT_TYPE":"PAYLOAD","MEAN_MOTION_DDOT":"0.0000000000000","LAUNCH_DATE":"2021-05-04","APOAPSIS":"548.654"},{"APOAPSIS":"548.671","LAUNCH_DATE":"2021-05-04","MEAN_MOTION_DDOT":"0.0000000000000","OBJECT_TYPE":"PAYLOAD","COUNTRY_CODE":"US","TIME_SYSTEM":"UTC","CENTER_NAME":"EARTH","ELEMENT_SET_NO":"999","RCS_SIZE":"LARGE","MEAN_MOTION":"15.06410355","MEAN_ELEMENT_THEORY":"SGP4","SEMIMAJOR_AXIS":"6925.317","INCLINATION":"53.0558","EPOCH":"2022-05-20T02:06:28.020384","FILE":"3453863","ECCENTRICITY":"0.00021510","GP_ID":"203992392","OBJECT_ID":"2021-038R","TLE_LINE2":"2 48368  53.0558 109.7792 0002151  49.4283 310.6893 15.06410355 58318","TLE_LINE1":"1 48368U 21038R   22140.08782431  .00002331  00000-0  17528-3 0  9990","SITE":"AFETR","NORAD_CAT_ID":"48368","EPHEMERIS_TYPE":"0","MEAN_ANOMALY":"310.6893","PERIOD":"95.591","MEAN_MOTION_DOT":"0.00002331","BSTAR":"0.00017528000000","ARG_OF_PERICENTER":"49.4283","OBJECT_NAME":"STARLINK-2623","REV_AT_EPOCH":"5831","DECAY_DATE":null,"RA_OF_ASC_NODE":"109.7792","CLASSIFICATION_TYPE":"U","PERIAPSIS":"545.692","REF_FRAME":"TEME"},{"LAUNCH_DATE":"2021-05-04","APOAPSIS":"548.811","COUNTRY_CODE":"US","OBJECT_TYPE":"PAYLOAD","MEAN_MOTION_DDOT":"0.0000000000000","RCS_SIZE":"LARGE","ELEMENT_SET_NO":"999","TIME_SYSTEM":"UTC","CENTER_NAME":"EARTH","ECCENTRICITY":"0.00022810","GP_ID":"203955274","EPOCH":"2022-05-19T09:40:36.337440","INCLINATION":"53.0565","FILE":"3453392","MEAN_MOTION":"15.06394076","SEMIMAJOR_AXIS":"6925.367","MEAN_ELEMENT_THEORY":"SGP4","EPHEMERIS_TYPE":"0","TLE_LINE2":"2 48369  53.0565 112.8599 0002281  50.7754 309.3437 15.06394076 58207","TLE_LINE1":"1 48369U 21038S   22139.40319835 -.00000068  00000-0  14362-4 0  9999","SITE":"AFETR","NORAD_CAT_ID":"48369","OBJECT_ID":"2021-038S","MEAN_MOTION_DOT":"-0.00000068","PERIOD":"95.593","MEAN_ANOMALY":"309.3437","REV_AT_EPOCH":"5820","OBJECT_NAME":"STARLINK-2641","BSTAR":"0.00001436200000","ARG_OF_PERICENTER":"50.7754","PERIAPSIS":"545.652","CLASSIFICATION_TYPE":"U","REF_FRAME":"TEME","RA_OF_ASC_NODE":"112.8599","DECAY_DATE":null},{"LAUNCH_DATE":"2021-05-04","APOAPSIS":"548.700","COUNTRY_CODE":"US","OBJECT_TYPE":"PAYLOAD","MEAN_MOTION_DDOT":"0.0000000000000","RCS_SIZE":"LARGE","ELEMENT_SET_NO":"999","CENTER_NAME":"EARTH","TIME_SYSTEM":"UTC","GP_ID":"203944760","ECCENTRICITY":"0.00021450","FILE":"3453038","INCLINATION":"53.0563","EPOCH":"2022-05-19T07:59:45.265056","MEAN_ELEMENT_THEORY":"SGP4","SEMIMAJOR_AXIS":"6925.349","MEAN_MOTION":"15.06399817","EPHEMERIS_TYPE":"0","SITE":"AFETR","NORAD_CAT_ID":"48370","TLE_LINE2":"2 48370  53.0563 113.1753 0002145  46.2658 313.8508 15.06399817 57605","TLE_LINE1":"1 48370U 21038T   22139.33316279  .00000159  00000-0  29575-4 0  9994","OBJECT_ID":"2021-038T","MEAN_MOTION_DOT":"0.00000159","PERIOD":"95.592","MEAN_ANOMALY":"313.8508","REV_AT_EPOCH":"5760","OBJECT_NAME":"STARLINK-2621","BSTAR":"0.00002957500000","ARG_OF_PERICENTER":"46.2658","REF_FRAME":"TEME","PERIAPSIS":"545.729","CLASSIFICATION_TYPE":"U","RA_OF_ASC_NODE":"113.1753","DECAY_DATE":null},{"MEAN_ANOMALY":"308.0164","PERIOD":"95.592","MEAN_MOTION_DOT":"-0.00000588","OBJECT_ID":"2021-038U","TLE_LINE2":"2 48371  53.0549 111.7105 0002014  52.1007 308.0164 15.06395096 57658","TLE_LINE1":"1 48371U 21038U   22139.66121322 -.00000588  00000-0 -20598-4 0  9998","SITE":"AFETR","NORAD_CAT_ID":"48371","EPHEMERIS_TYPE":"0","DECAY_DATE":null,"RA_OF_ASC_NODE":"111.7105","PERIAPSIS":"545.834","CLASSIFICATION_TYPE":"U","REF_FRAME":"TEME","BSTAR":"-0.00002059800000","ARG_OF_PERICENTER":"52.1007","OBJECT_NAME":"STARLINK-2589","REV_AT_EPOCH":"5765","MEAN_MOTION_DDOT":"0.0000000000000","OBJECT_TYPE":"PAYLOAD","COUNTRY_CODE":"US","APOAPSIS":"548.623","LAUNCH_DATE":"2021-05-04","MEAN_MOTION":"15.06395096","SEMIMAJOR_AXIS":"6925.364","MEAN_ELEMENT_THEORY":"SGP4","INCLINATION":"53.0549","EPOCH":"2022-05-19T15:52:08.822208","FILE":"3453812","ECCENTRICITY":"0.00020140","GP_ID":"203987390","TIME_SYSTEM":"UTC","CENTER_NAME":"EARTH","ELEMENT_SET_NO":"999","RCS_SIZE":"LARGE"},{"MEAN_MOTION_DDOT":"0.0000000000000","OBJECT_TYPE":"PAYLOAD","COUNTRY_CODE":"US","LAUNCH_DATE":"2021-05-04","APOAPSIS":"548.805","MEAN_MOTION":"15.06402415","MEAN_ELEMENT_THEORY":"SGP4","SEMIMAJOR_AXIS":"6925.341","INCLINATION":"53.0556","EPOCH":"2022-05-20T01:20:04.449984","FILE":"3453954","ECCENTRICITY":"0.00023080","GP_ID":"203994020","TIME_SYSTEM":"UTC","CENTER_NAME":"EARTH","ELEMENT_SET_NO":"999","RCS_SIZE":"LARGE","MEAN_ANOMALY":"317.3591","PERIOD":"95.592","MEAN_MOTION_DOT":"-0.00000174","OBJECT_ID":"2021-038V","TLE_LINE1":"1 48372U 21038V   22140.05560706 -.00000174  00000-0  72488-5 0  9993","TLE_LINE2":"2 48372  53.0556 109.9388 0002308  42.7577 317.3591 15.06402415 58306","NORAD_CAT_ID":"48372","SITE":"AFETR","EPHEMERIS_TYPE":"0","DECAY_DATE":null,"RA_OF_ASC_NODE":"109.9388","CLASSIFICATION_TYPE":"U","PERIAPSIS":"545.608","REF_FRAME":"TEME","BSTAR":"0.00000724880000","ARG_OF_PERICENTER":"42.7577","OBJECT_NAME":"STARLINK-2572","REV_AT_EPOCH":"5830"},{"MEAN_MOTION_DOT":"0.00002419","MEAN_ANOMALY":"298.0481","PERIOD":"95.592","EPHEMERIS_TYPE":"0","OBJECT_ID":"2021-038W","SITE":"AFETR","NORAD_CAT_ID":"48373","TLE_LINE2":"2 48373  53.0533 111.7392 0001724  62.0682 298.0481 15.06405993 57655","TLE_LINE1":"1 48373U 21038W   22139.65383329  .00002419  00000-0  18122-3 0  9998","REF_FRAME":"TEME","PERIAPSIS":"546.001","CLASSIFICATION_TYPE":"U","DECAY_DATE":null,"RA_OF_ASC_NODE":"111.7392","OBJECT_NAME":"STARLINK-2609","REV_AT_EPOCH":"5765","BSTAR":"0.00018122000000","ARG_OF_PERICENTER":"62.0682","OBJECT_TYPE":"PAYLOAD","COUNTRY_CODE":"US","MEAN_MOTION_DDOT":"0.0000000000000","LAUNCH_DATE":"2021-05-04","APOAPSIS":"548.389","GP_ID":"203988392","ECCENTRICITY":"0.00017240","MEAN_ELEMENT_THEORY":"SGP4","SEMIMAJOR_AXIS":"6925.330","MEAN_MOTION":"15.06405993","FILE":"3453812","EPOCH":"2022-05-19T15:41:31.196256","INCLINATION":"53.0533","ELEMENT_SET_NO":"999","RCS_SIZE":"LARGE","CENTER_NAME":"EARTH","TIME_SYSTEM":"UTC"},{"REF_FRAME":"TEME","PERIAPSIS":"545.767","CLASSIFICATION_TYPE":"U","RA_OF_ASC_NODE":"111.7537","DECAY_DATE":null,"REV_AT_EPOCH":"5765","OBJECT_NAME":"STARLINK-2604","BSTAR":"0.00063643000000","ARG_OF_PERICENTER":"52.5628","MEAN_MOTION_DOT":"0.00009213","PERIOD":"95.592","MEAN_ANOMALY":"307.5548","EPHEMERIS_TYPE":"0","SITE":"AFETR","NORAD_CAT_ID":"48374","TLE_LINE2":"2 48374  53.0532 111.7537 0002051  52.5628 307.5548 15.06408479 57656","TLE_LINE1":"1 48374U 21038X   22139.65015672  .00009213  00000-0  63643-3 0  9999","OBJECT_ID":"2021-038X","GP_ID":"203986642","ECCENTRICITY":"0.00020510","FILE":"3453812","EPOCH":"2022-05-19T15:36:13.540608","INCLINATION":"53.0532","MEAN_ELEMENT_THEORY":"SGP4","SEMIMAJOR_AXIS":"6925.323","MEAN_MOTION":"15.06408479","RCS_SIZE":"LARGE","ELEMENT_SET_NO":"999","CENTER_NAME":"EARTH","TIME_SYSTEM":"UTC","COUNTRY_CODE":"US","OBJECT_TYPE":"PAYLOAD","MEAN_MOTION_DDOT":"0.0000000000000","LAUNCH_DATE":"2021-05-04","APOAPSIS":"548.608"}];
